{
    "links": {
        "self": "http://www.neowsapp.com/rest/v1/neo/3182181?api_key=iIulBulltgU6a56xZRHN4H3l9WmuAYTsLGpBGhQ2"
    },
    "id": "3182181",
    "neo_reference_id": "3182181",
    "name": "(2004 JP12)",
    "designation": "2004 JP12",
    "nasa_jpl_url": "http://ssd.jpl.nasa.gov/sbdb.cgi?sstr=3182181",
    "absolute_magnitude_h": 23.4,
    "estimated_diameter": {
        "kilometers": {
            "estimated_diameter_min": 0.0555334912,
            "estimated_diameter_max": 0.1241766613
        },
        "meters": {
            "estimated_diameter_min": 55.5334911581,
            "estimated_diameter_max": 124.1766612574
        },
        "miles": {
            "estimated_diameter_min": 0.0345069009,
            "estimated_diameter_max": 0.0771597762
        },
        "feet": {
            "estimated_diameter_min": 182.1964991311,
            "estimated_diameter_max": 407.4037573197
        }
    },
    "is_potentially_hazardous_asteroid": false,
    "close_approach_data": [
        {
            "close_approach_date": "2004-05-07",
            "close_approach_date_full": "2004-May-07 16:05",
            "epoch_date_close_approach": 1083945900000,
            "relative_velocity": {
                "kilometers_per_second": "24.9177791793",
                "kilometers_per_hour": "89704.0050453191",
                "miles_per_hour": "55738.5802460762"
            },
            "miss_distance": {
                "astronomical": "0.0337385009",
                "lunar": "13.1242768501",
                "kilometers": "5047207.871633083",
                "miles": "3136189.5443912254"
            },
            "orbiting_body": "Earth"
        }
    ],
    "orbital_data": {
        "orbit_id": "9",
        "orbit_determination_date": "2017-04-06 09:12:46",
        "first_observation_date": "2004-05-13",
        "last_observation_date": "2004-05-20",
        "data_arc_in_days": 7,
        "observations_used": 19,
        "orbit_uncertainty": "9",
        "minimum_orbit_intersection": ".0282324",
        "jupiter_tisserand_invariant": "3.474",
        "epoch_osculation": "2453139.5",
        "eccentricity": ".7783089310245589",
        "semi_major_axis": "1.912331286235524",
        "inclination": "8.263068199867469",
        "ascending_node_longitude": "217.2725394204332",
        "orbital_period": "965.9243676221685",
        "perihelion_distance": ".4239467670807335",
        "perihelion_argument": "262.3826814323317",
        "aphelion_distance": "3.400715805390313",
        "perihelion_time": "2453087.145556304652",
        "mean_anomaly": "19.51250052498698",
        "mean_motion": ".3726999877704895",
        "equinox": "J2000",
        "orbit_class": {
            "orbit_class_type": "APO",
            "orbit_class_description": "Near-Earth asteroid orbits which cross the Earth’s orbit similar to that of 1862 Apollo",
            "orbit_class_range": "a (semi-major axis) > 1.0 AU; q (perihelion) < 1.017 AU"
        }
    },
    "is_sentry_object": false
}